[{"OBJECT_NAME":"STARLINK-31428","OBJECT_ID":"2024-060V","EPOCH":"2026-03-09T19:29:00.007296","MEAN_MOTION":15.27576066,"ECCENTRICITY":0.000214,"INCLINATION":43.0035,"RA_OF_ASC_NODE":258.9818,"ARG_OF_PERICENTER":272.9507,"MEAN_ANOMALY":87.11,"EPHEMERIS_TYPE":0,"CLASSIFICATION_TYPE":"U","NORAD_CAT_ID":59367,"ELEMENT_SET_NO":999,"REV_AT_EPOCH":11008,"BSTAR":1.193203e-5,"MEAN_MOTION_DOT":6.6e-7,"MEAN_MOTION_DDOT":0},{"OBJECT_NAME":"NUSAT-48 (HENRIETTA LEAVITT)","OBJECT_ID":"2024-149AG","EPOCH":"2026-03-09T19:19:17.269536","MEAN_MOTION":15.29812597,"ECCENTRICITY":0.00027538,"INCLINATION":97.3923,"RA_OF_ASC_NODE":150.8264,"ARG_OF_PERICENTER":263.3026,"MEAN_ANOMALY":96.7901,"EPHEMERIS_TYPE":0,"CLASSIFICATION_TYPE":"U","NORAD_CAT_ID":60498,"ELEMENT_SET_NO":999,"REV_AT_EPOCH":8694,"BSTAR":0.00045211745,"MEAN_MOTION_DOT":0.00012988,"MEAN_MOTION_DDOT":0}]
